STARLINK-4758           
1 53820U 22114C   26068.92401439 -.00000895  00000+0 -38140-4 0  9995
2 53820  53.2172 303.2911 0001241  83.3214 276.7919 15.08837521192865
LEMUR-2-LANGER2SPACE    
1 63358U 25061H   26068.93705617  .00006238  00000+0  35148-3 0  9991
2 63358  97.5541  45.3892 0015335 237.4180 122.5571 15.13463796 52602
